NORAD_CAT_ID,OBJECT_NAME,OBJECT_TYPE,EPOCH,MEAN_MOTION,ECCENTRICITY,INCLINATION,RA_OF_ASC_NODE,ARG_OF_PERICENTER,MEAN_ANOMALY,BSTAR,MEAN_MOTION_DOT,MEAN_MOTION_DDOT,TLE_LINE0,TLE_LINE1,TLE_LINE2,SEMIMAJOR_AXIS,PERIOD,APOGEE,PERIGEE,DECAYED
51782.0,STARLINK-3616,PAYLOAD,2023-07-27 19:47:15,15.08840377,0.0001248,53.2174,320.1757,77.8067,282.3065,0.00012285,1.668e-05,0.0,0 STARLINK-3616,1 51782U 22017Q   23208.82448869  .00001668  00000-0  12285-3 0  9991,2 51782  53.2174 320.1757 0001248  77.8067 282.3065 15.08840377 77881,6917.879,95.438,540.608,538.881,0.0
51782.0,STARLINK-3616,PAYLOAD,2023-07-28 16:27:17,15.08837812,0.0001463,53.217,316.3096,76.1245,283.991,-0.00010291,-1.925e-05,0.0,0 STARLINK-3616,1 51782U 22017Q   23209.68561902 -.00001925  00000-0 -10291-3 0  9993,2 51782  53.2170 316.3096 0001463  76.1245 283.9910 15.08837812 79742,6917.887,95.438,540.764,538.74,0.0
51782.0,STARLINK-3616,PAYLOAD,2023-07-29 16:18:03,15.08844692,0.000142,53.2147,311.8483,86.8454,273.27,0.00012861,1.76e-05,0.0,0 STARLINK-3616,1 51782U 22017Q   23210.67920871  .00001760  00000-0  12861-3 0  9998,2 51782  53.2147 311.8483 0001420  86.8454 273.2700 15.08844692 79898,6917.866,95.437,540.713,538.749,0.0
51782.0,STARLINK-3616,PAYLOAD,2023-07-30 09:47:18,15.08842694,0.000145,53.213,308.5753,95.9691,264.1466,6.4467e-05,7.38e-06,0.0,0 STARLINK-3616,1 51782U 22017Q   23211.40785426  .00000738  00000-0  64467-4 0  9999,2 51782  53.2130 308.5753 0001450  95.9691 264.1466 15.08842694 80003,6917.872,95.437,540.74,538.734,0.0
51782.0,STARLINK-3616,PAYLOAD,2023-07-30 16:08:50,15.08850228,3.09e-05,53.217,307.3881,116.1368,243.9656,0.00013435,1.852e-05,0.0,0 STARLINK-3616,1 51782U 22017Q   23211.67280253  .00001852  00000-0  13435-3 0  9992,2 51782  53.2170 307.3881 0000309 116.1368 243.9656 15.08850228 80047,6917.849,95.437,539.928,539.5,0.0
51782.0,STARLINK-3616,PAYLOAD,2023-07-31 09:38:05,15.08840058,9.41e-05,53.216,304.1166,101.9453,258.1645,3.6127e-05,2.87e-06,0.0,0 STARLINK-3616,1 51782U 22017Q   23212.40145372  .00000287  00000-0  36127-4 0  9991,2 51782  53.2160 304.1166 0000941 101.9453 258.1645 15.08840058 80154,6917.88,95.438,540.396,539.094,0.0
51782.0,STARLINK-3616,PAYLOAD,2023-07-31 15:59:37,15.08851123,0.0001325,53.2179,302.9295,98.4442,261.6701,0.0001147,1.539e-05,0.0,0 STARLINK-3616,1 51782U 22017Q   23212.66640516  .00001539  00000-0  11470-3 0  9993,2 51782  53.2179 302.9295 0001325  98.4442 261.6701 15.08851123 80199,6917.846,95.437,540.628,538.795,0.0
51782.0,STARLINK-3616,PAYLOAD,2023-08-01 15:50:25,15.08842294,9.77e-05,53.2171,298.4667,89.4894,270.621,2.5114e-05,1.12e-06,0.0,0 STARLINK-3616,1 51782U 22017Q   23213.66001371  .00000112  00000-0  25114-4 0  9991,2 51782  53.2171 298.4667 0000977  89.4894 270.6210 15.08842294 80347,6917.873,95.437,540.414,539.063,0.0
51782.0,STARLINK-3616,PAYLOAD,2023-08-02 17:16:34,15.08853587,0.0001058,53.2159,293.7101,85.1762,274.9351,0.00020202,2.93e-05,0.0,0 STARLINK-3616,1 51782U 22017Q   23214.71984627  .00002930  00000-0  20202-3 0  9994,2 51782  53.2159 293.7101 0001058  85.1762 274.9351 15.08853587 80500,6917.839,95.437,540.436,538.972,0.0
51782.0,STARLINK-3616,PAYLOAD,2023-08-03 10:45:50,15.08837731,0.0001134,53.2156,290.4395,90.686,269.4262,0.0001012,1.323e-05,0.0,0 STARLINK-3616,1 51782U 22017Q   23215.44849740  .00001323  00000-0  10120-3 0  9994,2 51782  53.2156 290.4395 0001134  90.6860 269.4262 15.08837731 80616,6917.887,95.438,540.537,538.968,0.0
51782.0,STARLINK-3616,PAYLOAD,2023-08-03 15:31:59,15.08845672,0.0001087,53.2155,289.5474,89.8687,270.2429,0.0002165,3.16e-05,0.0,0 STARLINK-3616,1 51782U 22017Q   23215.64721360  .00003160  00000-0  21650-3 0  9994,2 51782  53.2155 289.5474 0001087  89.8687 270.2429 15.08845672 80647,6917.863,95.437,540.48,538.976,0.0
51782.0,STARLINK-3616,PAYLOAD,2023-08-04 10:36:37,15.08833417,0.0001169,53.2156,285.9793,86.45,273.6626,-6.711e-06,-3.95e-06,0.0,0 STARLINK-3616,1 51782U 22017Q   23216.44210118 -.00000395  00000-0 -67110-5 0  9999,2 51782  53.2156 285.9793 0001169  86.4500 273.6626 15.08833417 80763,6917.901,95.438,540.574,538.957,0.0
51782.0,STARLINK-3616,PAYLOAD,2023-08-04 16:58:09,15.08844705,0.0001108,53.2155,284.7892,87.9718,272.1401,1.7868e-05,-3e-08,0.0,0 STARLINK-3616,1 51782U 22017Q   23216.70705675 -.00000003  00000-0  17868-4 0  9994,2 51782  53.2155 284.7892 0001108  87.9718 272.1401 15.08844705 80801,6917.866,95.437,540.498,538.965,0.0
51782.0,STARLINK-3616,PAYLOAD,2023-08-05 10:27:24,15.08842357,0.0001423,53.2148,281.5177,101.9466,258.1685,0.00018759,2.699e-05,0.0,0 STARLINK-3616,1 51782U 22017Q   23217.43570274  .00002699  00000-0  18759-3 0  9991,2 51782  53.2148 281.5177 0001423 101.9466 258.1685 15.08842357 80912,6917.873,95.437,540.723,538.754,0.0
51782.0,STARLINK-3616,PAYLOAD,2023-08-06 13:28:57,15.08847676,0.0001099,53.2148,276.4625,90.0726,270.0392,0.00018788,2.704e-05,0.0,0 STARLINK-3616,1 51782U 22017Q   23218.56177850  .00002704  00000-0  18788-3 0  9998,2 51782  53.2148 276.4625 0001099  90.0726 270.0392 15.08847676 81085,6917.857,95.437,540.482,538.962,0.0
51782.0,STARLINK-3616,PAYLOAD,2023-08-06 21:25:53,15.08838137,0.0001193,53.2151,274.9761,85.1324,274.9805,5.8264e-05,6.4e-06,0.0,0 STARLINK-3616,1 51782U 22017Q   23218.89298338  .00000640  00000-0  58264-4 0  9990,2 51782  53.2151 274.9761 0001193  85.1324 274.9805 15.08838137 81137,6917.886,95.438,540.576,538.926,0.0
51782.0,STARLINK-3616,PAYLOAD,2023-08-07 14:55:07,15.08846961,0.0001174,53.2162,271.7048,91.6455,268.4672,1.1375e-05,-1.07e-06,0.0,0 STARLINK-3616,1 51782U 22017Q   23219.62162018 -.00000107  00000-0  11375-4 0  9998,2 51782  53.2162 271.7048 0001174  91.6455 268.4672 15.08846961 81244,6917.859,95.437,540.536,538.912,0.0
51782.0,STARLINK-3616,PAYLOAD,2023-08-09 09:50:33,15.08836569,0.0001141,53.2158,263.6763,95.3715,264.7407,9.3888e-05,1.207e-05,0.0,0 STARLINK-3616,1 51782U 22017Q   23221.41010598  .00001207  00000-0  93888-4 0  9993,2 51782  53.2158 263.6763 0001141  95.3715 264.7407 15.08836569 81515,6917.891,95.438,540.545,538.967,0.0
51782.0,STARLINK-3616,PAYLOAD,2023-08-10 14:27:29,15.08844953,0.0001076,53.2153,258.3226,90.2175,269.8941,5.6331e-05,6.09e-06,0.0,0 STARLINK-3616,1 51782U 22017Q   23222.60242330  .00000609  00000-0  56331-4 0  9993,2 51782  53.2153 258.3226 0001076  90.2175 269.8941 15.08844953 81690,6917.865,95.437,540.475,538.986,0.0
51782.0,STARLINK-3616,PAYLOAD,2023-08-11 11:07:30,15.08839571,0.0001114,53.2155,254.4566,93.2436,266.8684,7.0475e-05,8.34e-06,0.0,0 STARLINK-3616,1 51782U 22017Q   23223.46354884  .00000834  00000-0  70475-4 0  9991,2 51782  53.2155 254.4566 0001114  93.2436 266.8684 15.08839571 81828,6917.882,95.438,540.517,538.976,0.0
51782.0,STARLINK-3616,PAYLOAD,2023-08-12 18:55:13,15.08834531,0.0001173,53.2154,248.5076,92.0377,268.075,0.00013558,1.87e-05,0.0,0 STARLINK-3616,1 51782U 22017Q   23224.78835297  .00001870  00000-0  13558-3 0  9998,2 51782  53.2154 248.5076 0001173  92.0377 268.0750 15.08834531 82025,6917.897,95.438,540.574,538.951,0.0
51782.0,STARLINK-3616,PAYLOAD,2023-08-14 10:39:51,15.08845068,0.0001229,53.2155,241.0752,81.7031,278.41,8.4104e-05,1.051e-05,0.0,0 STARLINK-3616,1 51782U 22017Q   23226.44434813  .00001051  00000-0  84104-4 0  9999,2 51782  53.2155 241.0752 0001229  81.7031 278.4100 15.08845068 82277,6917.865,95.437,540.58,538.88,0.0
51782.0,STARLINK-3616,PAYLOAD,2023-08-15 12:06:01,15.08846243,0.0001176,53.2157,236.317,83.5214,276.5912,0.0001402,1.945e-05,0.0,0 STARLINK-3616,1 51782U 22017Q   23227.50418565  .00001945  00000-0  14020-3 0  9994,2 51782  53.2157 236.3170 0001176  83.5214 276.5912 15.08846243 82438,6917.861,95.437,540.54,538.913,0.0
51782.0,STARLINK-3616,PAYLOAD,2023-08-16 00:49:07,15.08839524,0.000122,53.2161,233.9376,86.8016,273.3116,1.2621e-05,-8.7e-07,0.0,0 STARLINK-3616,1 51782U 22017Q   23228.03411258 -.00000087  00000-0  12621-4 0  9998,2 51782  53.2161 233.9376 0001220  86.8016 273.3116 15.08839524 82514,6917.882,95.438,540.591,538.903,0.0
51782.0,STARLINK-3616,PAYLOAD,2023-08-17 07:01:26,15.08840234,0.0001256,53.2163,228.2878,92.1881,267.9255,1.1842e-05,-9.9e-07,0.0,0 STARLINK-3616,1 51782U 22017Q   23229.29267123 -.00000099  00000-0  11842-4 0  9994,2 51782  53.2163 228.2878 0001256  92.1881 267.9255 15.08840234 82703,6917.88,95.438,540.614,538.876,0.0
51782.0,STARLINK-3616,PAYLOAD,2023-08-18 16:24:32,15.0883925,0.0001209,53.2164,222.0431,97.1409,262.9721,1.7355e-05,-1.2e-07,0.0,0 STARLINK-3616,1 51782U 22017Q   23230.68371307 -.00000012  00000-0  17355-4 0  9999,2 51782  53.2164 222.0431 0001209  97.1409 262.9721 15.08839250 82912,6917.883,95.438,540.584,538.911,0.0
51782.0,STARLINK-3616,PAYLOAD,2023-08-19 08:18:23,15.08874212,0.0001147,53.2165,219.0696,98.215,261.8972,-0.00042873,-7.111e-05,0.0,0 STARLINK-3616,1 51782U 22017Q   23231.34610445 -.00007111  00000-0 -42873-3 0  9992,2 51782  53.2165 219.0696 0001147  98.2150 261.8972 15.08874212 83013,6917.776,95.435,540.434,538.847,0.0
51782.0,STARLINK-3616,PAYLOAD,2023-08-19 11:29:10,15.08839415,0.0001275,53.2164,218.4747,89.6767,270.4371,9.7563e-05,1.265e-05,0.0,0 STARLINK-3616,1 51782U 22017Q   23231.47859332  .00001265  00000-0  97563-4 0  9995,2 51782  53.2164 218.4747 0001275  89.6767 270.4371 15.08839415 83039,6917.882,95.438,540.629,538.865,0.0
51782.0,STARLINK-3616,PAYLOAD,2023-08-20 03:23:02,15.08834715,0.000135,53.2156,215.5011,86.688,273.4266,2.9051e-05,1.74e-06,0.0,0 STARLINK-3616,1 51782U 22017Q   23232.14100068  .00000174  00000-0  29051-4 0  9990,2 51782  53.2156 215.5011 0001350  86.6880 273.4266 15.08834715 83134,6917.897,95.438,540.695,538.828,0.0
51782.0,STARLINK-3616,PAYLOAD,2023-08-20 11:19:57,15.08840748,0.0001347,53.2165,214.0145,86.4329,273.6817,3.851e-05,3.25e-06,0.0,0 STARLINK-3616,1 51782U 22017Q   23232.47219701  .00000325  00000-0  38510-4 0  9999,2 51782  53.2165 214.0145 0001347  86.4329 273.6817 15.08840748 83180,6917.878,95.438,540.675,538.811,0.0
